{"type": "FeatureCollection", "features": [ {"type": "Feature", "properties": {"norad_id": 66698, "name": "IRIDE FM4", "group": "last-30-days", "lat": 68.19962827771685, "lon": 54.27617772083246, "alt_km": 509.0558989766887, "timestamp": "2025-12-27T20:30:58.021567+00:00", "meta": {"OBJECT_NAME": "IRIDE FM4", "OBJECT_ID": "2025-276AJ", "EPOCH": "2025-12-27T12:00:02.000160", "MEAN_MOTION": 15.17375412, "ECCENTRICITY": 0.0003005, "INCLINATION": 97.4382, "RA_OF_ASC_NODE": 72.9923, "ARG_OF_PERICENTER": 233.3487, "MEAN_ANOMALY": 59.1714, "EPHEMERIS_TYPE": 0, "CLASSIFICATION_TYPE": "U", "NORAD_CAT_ID": 66698, "ELEMENT_SET_NO": 999, "REV_AT_EPOCH": 130, "BSTAR": 0.0021465, "MEAN_MOTION_DOT": 0.00043025, "MEAN_MOTION_DDOT": 0}, "tle": {"line1": "1 66698U 25276AJ  25361.50002315  .00043025  00000+0  21465-2 0  9993", "line2": "2 66698  97.4382  72.9923 0003005 233.3487  59.1714 15.17375412  1307"}}, "geometry": {"type": "Point", "coordinates": [54.27617772083246, 68.19962827771685]}}, {"type": "Feature", "properties": {"norad_id": 66699, "name": "IRIDE FM5", "group": "last-30-days", "lat": 70.06223498399555, "lon": 52.231862593674514, "alt_km": 508.90281121490807, "timestamp": "2025-12-27T20:30:58.021578+00:00", "meta": {"OBJECT_NAME": "IRIDE FM5", "OBJECT_ID": "2025-276AK", "EPOCH": "2025-12-27T10:42:23.516064", "MEAN_MOTION": 15.17444011, "ECCENTRICITY": 0.0003227, "INCLINATION": 97.4398, "RA_OF_ASC_NODE": 72.9455, "ARG_OF_PERICENTER": 234.6976, "MEAN_ANOMALY": 125.3956, "EPHEMERIS_TYPE": 0, "CLASSIFICATION_TYPE": "U", "NORAD_CAT_ID": 66699, "ELEMENT_SET_NO": 999, "REV_AT_EPOCH": 435, "BSTAR": 0.00026197, "MEAN_MOTION_DOT": 5.176e-05, "MEAN_MOTION_DDOT": 0}, "tle": {"line1": "1 66699U 25276AK  25361.44610551  .00005176  00000+0  26197-3 0  9997", "line2": "2 66699  97.4398  72.9455 0003227 234.6976 125.3956 15.17444011  4352"}}, "geometry": {"type": "Point", "coordinates": [52.231862593674514, 70.06223498399555]}}, {"type": "Feature", "properties": {"norad_id": 66700, "name": "IRIDE FM6", "group": "last-30-days", "lat": 21.418313109899227, "lon": -103.67076543078807, "alt_km": 509.42853912080955, "timestamp": "2025-12-27T20:30:58.021589+00:00", "meta": {"OBJECT_NAME": "IRIDE FM6", "OBJECT_ID": "2025-276AL", "EPOCH": "2025-12-27T11:54:45.683712", "MEAN_MOTION": 15.18299143, "ECCENTRICITY": 0.000216, "INCLINATION": 97.4415, "RA_OF_ASC_NODE": 73.0377, "ARG_OF_PERICENTER": 150.0829, "MEAN_ANOMALY": 210.0529, "EPHEMERIS_TYPE": 0, "CLASSIFICATION_TYPE": "U", "NORAD_CAT_ID": 66700, "ELEMENT_SET_NO": 999, "REV_AT_EPOCH": 436, "BSTAR": 0.00029689, "MEAN_MOTION_DOT": 6.022e-05, "MEAN_MOTION_DDOT": 0}, "tle": {"line1": "1 66700U 25276AL  25361.49636208  .00006022  00000+0  29689-3 0  9992", "line2": "2 66700  97.4415  73.0377 0002160 150.0829 210.0529 15.18299143  4367"}}, "geometry": {"type": "Point", "coordinates": [-103.67076543078807, 21.418313109899227]}}, {"type": "Feature", "properties": {"norad_id": 66701, "name": "IRIDE FM7", "group": "last-30-days", "lat": 70.00396417386763, "lon": 52.30314488219177, "alt_km": 508.86516142443816, "timestamp": "2025-12-27T20:30:58.021600+00:00", "meta": {"OBJECT_NAME": "IRIDE FM7", "OBJECT_ID": "2025-276AM", "EPOCH": "2025-12-27T10:42:24.577920", "MEAN_MOTION": 15.17447332, "ECCENTRICITY": 0.0003192, "INCLINATION": 97.4417, "RA_OF_ASC_NODE": 72.9524, "ARG_OF_PERICENTER": 233.8121, "MEAN_ANOMALY": 126.2817, "EPHEMERIS_TYPE": 0, "CLASSIFICATION_TYPE": "U", "NORAD_CAT_ID": 66701, "ELEMENT_SET_NO": 999, "REV_AT_EPOCH": 435, "BSTAR": 0.0002448, "MEAN_MOTION_DOT": 4.833e-05, "MEAN_MOTION_DDOT": 0}, "tle": {"line1": "1 66701U 25276AM  25361.44611780  .00004833  00000+0  24480-3 0  9998", "line2": "2 66701  97.4417  72.9524 0003192 233.8121 126.2817 15.17447332  4354"}}, "geometry": {"type": "Point", "coordinates": [52.30314488219177, 70.00396417386763]}}, {"type": "Feature", "properties": {"norad_id": 66702, "name": "IRIDE FM8", "group": "last-30-days", "lat": 70.97259394104283, "lon": 51.080871075660525, "alt_km": 508.653050323941, "timestamp": "2025-12-27T20:30:58.021610+00:00", "meta": {"OBJECT_NAME": "IRIDE FM8", "OBJECT_ID": "2025-276AN", "EPOCH": "2025-12-27T10:42:08.362368", "MEAN_MOTION": 15.17458476, "ECCENTRICITY": 0.0002961, "INCLINATION": 97.4391, "RA_OF_ASC_NODE": 72.9437, "ARG_OF_PERICENTER": 240.9209, "MEAN_ANOMALY": 119.1728, "EPHEMERIS_TYPE": 0, "CLASSIFICATION_TYPE": "U", "NORAD_CAT_ID": 66702, "ELEMENT_SET_NO": 999, "REV_AT_EPOCH": 435, "BSTAR": 0.00048639, "MEAN_MOTION_DOT": 9.677e-05, "MEAN_MOTION_DDOT": 0}, "tle": {"line1": "1 66702U 25276AN  25361.44593012  .00009677  00000+0  48639-3 0  9999", "line2": "2 66702  97.4391  72.9437 0002961 240.9209 119.1728 15.17458476  4351"}}, "geometry": {"type": "Point", "coordinates": [51.080871075660525, 70.97259394104283]}}, {"type": "Feature", "properties": {"norad_id": 66703, "name": "PELICAN-6", "group": "last-30-days", "lat": 75.9838575537115, "lon": 41.782730720087294, "alt_km": 507.1690270814097, "timestamp": "2025-12-27T20:30:58.021620+00:00", "meta": {"OBJECT_NAME": "PELICAN-6", "OBJECT_ID": "2025-276AP", "EPOCH": "2025-12-27T12:15:35.030304", "MEAN_MOTION": 15.17372678, "ECCENTRICITY": 0.0001283, "INCLINATION": 97.4401, "RA_OF_ASC_NODE": 73.0122, "ARG_OF_PERICENTER": 210.0365, "MEAN_ANOMALY": 150.0795, "EPHEMERIS_TYPE": 0, "CLASSIFICATION_TYPE": "U", "NORAD_CAT_ID": 66703, "ELEMENT_SET_NO": 999, "REV_AT_EPOCH": 436, "BSTAR": 0.00042562, "MEAN_MOTION_DOT": 8.437e-05, "MEAN_MOTION_DDOT": 0}, "tle": {"line1": "1 66703U 25276AP  25361.51082211  .00008437  00000+0  42562-3 0  9994", "line2": "2 66703  97.4401  73.0122 0001283 210.0365 150.0795 15.17372678  4362"}}, "geometry": {"type": "Point", "coordinates": [41.782730720087294, 75.9838575537115]}}, {"type": "Feature", "properties": {"norad_id": 66704, "name": "FLOCK 4H-1", "group": "last-30-days", "lat": 31.746454511782375, "lon": -101.99493951110895, "alt_km": 508.08629438576463, "timestamp": "2025-12-27T20:30:58.021634+00:00", "meta": {"OBJECT_NAME": "FLOCK 4H-1", "OBJECT_ID": "2025-276AQ", "EPOCH": "2025-12-27T00:00:02.999808", "MEAN_MOTION": 15.18128362, "ECCENTRICITY": 0.00022108, "INCLINATION": 97.4372, "RA_OF_ASC_NODE": 72.5289, "ARG_OF_PERICENTER": 159.7465, "MEAN_ANOMALY": 359.2775, "EPHEMERIS_TYPE": 0, "CLASSIFICATION_TYPE": "U", "NORAD_CAT_ID": 66704, "ELEMENT_SET_NO": 999, "REV_AT_EPOCH": 244, "BSTAR": 0.0015976865, "MEAN_MOTION_DOT": 0.00032658, "MEAN_MOTION_DDOT": 0}, "tle": {"line1": "1 66704U 25276AQ  25361.00003472  .00032658  00000+0  15977-2 0  9992", "line2": "2 66704  97.4372  72.5289 0002210 159.7465 359.2775 15.18128362  2447"}}, "geometry": {"type": "Point", "coordinates": [-101.99493951110895, 31.746454511782375]}}, {"type": "Feature", "properties": {"norad_id": 66705, "name": "FLOCK 4H-2", "group": "last-30-days", "lat": 28.41517507966291, "lon": -102.57762218323552, "alt_km": 509.1647633308994, "timestamp": "2025-12-27T20:30:58.021646+00:00", "meta": {"OBJECT_NAME": "FLOCK 4H-2", "OBJECT_ID": "2025-276AR", "EPOCH": "2025-12-27T11:56:34.711872", "MEAN_MOTION": 15.18168123, "ECCENTRICITY": 0.0001679, "INCLINATION": 97.437, "RA_OF_ASC_NODE": 73.0186, "ARG_OF_PERICENTER": 126.5934, "MEAN_ANOMALY": 233.5455, "EPHEMERIS_TYPE": 0, "CLASSIFICATION_TYPE": "U", "NORAD_CAT_ID": 66705, "ELEMENT_SET_NO": 999, "REV_AT_EPOCH": 436, "BSTAR": -0.00053703, "MEAN_MOTION_DOT": -0.00011013, "MEAN_MOTION_DDOT": 0}, "tle": {"line1": "1 66705U 25276AR  25361.49762398 -.00011013  00000+0 -53703-3 0  9999", "line2": "2 66705  97.4370  73.0186 0001679 126.5934 233.5455 15.18168123  4360"}}, "geometry": {"type": "Point", "coordinates": [-102.57762218323552, 28.41517507966291]}}, {"type": "Feature", "properties": {"norad_id": 66706, "name": "FLOCK 4H-3", "group": "last-30-days", "lat": 80.92898819421681, "lon": 18.39282916982997, "alt_km": 507.4917256560011, "timestamp": "2025-12-27T20:30:58.021657+00:00", "meta": {"OBJECT_NAME": "FLOCK 4H-3", "OBJECT_ID": "2025-276AS", "EPOCH": "2025-12-27T10:38:54.485088", "MEAN_MOTION": 15.17532129, "ECCENTRICITY": 0.0003136, "INCLINATION": 97.4437, "RA_OF_ASC_NODE": 72.965, "ARG_OF_PERICENTER": 224.7079, "MEAN_ANOMALY": 135.3903, "EPHEMERIS_TYPE": 0, "CLASSIFICATION_TYPE": "U", "NORAD_CAT_ID": 66706, "ELEMENT_SET_NO": 999, "REV_AT_EPOCH": 435, "BSTAR": 0.00030713, "MEAN_MOTION_DOT": 6.096e-05, "MEAN_MOTION_DDOT": 0}, "tle": {"line1": "1 66706U 25276AS  25361.44368617  .00006096  00000+0  30713-3 0  9990", "line2": "2 66706  97.4437  72.9650 0003136 224.7079 135.3903 15.17532129  4356"}}, "geometry": {"type": "Point", "coordinates": [18.39282916982997, 80.92898819421681]}}, {"type": "Feature", "properties": {"norad_id": 66707, "name": "FLOCK 4H-4", "group": "last-30-days", "lat": 57.74579806116313, "lon": 61.39680897115441, "alt_km": 511.10392763714754, "timestamp": "2025-12-27T20:30:58.021667+00:00", "meta": {"OBJECT_NAME": "FLOCK 4H-4", "OBJECT_ID": "2025-276AT", "EPOCH": "2025-12-27T12:20:41.803008", "MEAN_MOTION": 15.17270724, "ECCENTRICITY": 0.0003753, "INCLINATION": 97.442, "RA_OF_ASC_NODE": 73.0169, "ARG_OF_PERICENTER": 230.4334, "MEAN_ANOMALY": 129.6568, "EPHEMERIS_TYPE": 0, "CLASSIFICATION_TYPE": "U", "NORAD_CAT_ID": 66707, "ELEMENT_SET_NO": 999, "REV_AT_EPOCH": 436, "BSTAR": 0.00051043, "MEAN_MOTION_DOT": 0.00010105, "MEAN_MOTION_DDOT": 0}, "tle": {"line1": "1 66707U 25276AT  25361.51437272  .00010105  00000+0  51043-3 0  9998", "line2": "2 66707  97.4420  73.0169 0003753 230.4334 129.6568 15.17270724  4363"}}, "geometry": {"type": "Point", "coordinates": [61.39680897115441, 57.74579806116313]}}]}